CCSDS_OMM_VERS = 2.0
CREATION_DATE  = 
ORIGINATOR     = 

OBJECT_NAME    = UNKNOWN
OBJECT_ID      = 
CENTER_NAME    = EARTH
REF_FRAME      = TEME
TIME_SYSTEM    = UTC
MEAN_ELEMENT_THEORY = SGP/SGP4

EPOCH          = 2025-10-28T15:49:37.340544
MEAN_MOTION    = 13.59868042
ECCENTRICITY   = .0002369
INCLINATION    = 100.1169
RA_OF_ASC_NODE = 19.7271
ARG_OF_PERICENTER = 200.4397
MEAN_ANOMALY   = 159.6647

EPHEMERIS_TYPE = 0
CLASSIFICATION_TYPE = U
NORAD_CAT_ID   = 82965
ELEMENT_SET_NO = 999
REV_AT_EPOCH   = 51832
BSTAR          = .186E-2
MEAN_MOTION_DOT = .1337E-4
MEAN_MOTION_DDOT = 0

CCSDS_OMM_VERS = 2.0
CREATION_DATE  = 
ORIGINATOR     = 

OBJECT_NAME    = UNKNOWN
OBJECT_ID      = 
CENTER_NAME    = EARTH
REF_FRAME      = TEME
TIME_SYSTEM    = UTC
MEAN_ELEMENT_THEORY = SGP/SGP4

EPOCH          = 2025-11-08T13:54:51.304608
MEAN_MOTION    = 0.99111911
ECCENTRICITY   = .0124909
INCLINATION    = 6.2713
RA_OF_ASC_NODE = 290.9208
ARG_OF_PERICENTER = 250.3178
MEAN_ANOMALY   = 320.7047

EPHEMERIS_TYPE = 0
CLASSIFICATION_TYPE = U
NORAD_CAT_ID   = 83903
ELEMENT_SET_NO = 999
REV_AT_EPOCH   = 4332
BSTAR          = 0
MEAN_MOTION_DOT = -.3E-7
MEAN_MOTION_DDOT = 0

CCSDS_OMM_VERS = 2.0
CREATION_DATE  = 
ORIGINATOR     = 

OBJECT_NAME    = UNKNOWN
OBJECT_ID      = 
CENTER_NAME    = EARTH
REF_FRAME      = TEME
TIME_SYSTEM    = UTC
MEAN_ELEMENT_THEORY = SGP/SGP4

EPOCH          = 2025-11-04T21:49:00.362208
MEAN_MOTION    = 1.02664883
ECCENTRICITY   = .0234954
INCLINATION    = 5.8710
RA_OF_ASC_NODE = 297.7524
ARG_OF_PERICENTER = 271.1488
MEAN_ANOMALY   = 248.3162

EPHEMERIS_TYPE = 0
CLASSIFICATION_TYPE = U
NORAD_CAT_ID   = 83934
ELEMENT_SET_NO = 999
REV_AT_EPOCH   = 4489
BSTAR          = 0
MEAN_MOTION_DOT = -.304E-5
MEAN_MOTION_DDOT = 0

CCSDS_OMM_VERS = 2.0
CREATION_DATE  = 
ORIGINATOR     = 

OBJECT_NAME    = UNKNOWN
OBJECT_ID      = 
CENTER_NAME    = EARTH
REF_FRAME      = TEME
TIME_SYSTEM    = UTC
MEAN_ELEMENT_THEORY = SGP/SGP4

EPOCH          = 2025-11-03T00:11:37.793184
MEAN_MOTION    = 5.31464536
ECCENTRICITY   = .5073898
INCLINATION    = 18.2728
RA_OF_ASC_NODE = 264.4103
ARG_OF_PERICENTER = 61.1942
MEAN_ANOMALY   = 340.3117

EPHEMERIS_TYPE = 0
CLASSIFICATION_TYPE = U
NORAD_CAT_ID   = 83970
ELEMENT_SET_NO = 999
REV_AT_EPOCH   = 19409
BSTAR          = .31613E-2
MEAN_MOTION_DOT = .295E-4
MEAN_MOTION_DDOT = 0

CCSDS_OMM_VERS = 2.0
CREATION_DATE  = 
ORIGINATOR     = 

OBJECT_NAME    = UNKNOWN
OBJECT_ID      = 
CENTER_NAME    = EARTH
REF_FRAME      = TEME
TIME_SYSTEM    = UTC
MEAN_ELEMENT_THEORY = SGP/SGP4

EPOCH          = 2025-11-07T01:00:17.136864
MEAN_MOTION    = 2.16233097
ECCENTRICITY   = .6137799
INCLINATION    = 22.5165
RA_OF_ASC_NODE = 184.7700
ARG_OF_PERICENTER = 48.2545
MEAN_ANOMALY   = 350.0846

EPHEMERIS_TYPE = 0
CLASSIFICATION_TYPE = U
NORAD_CAT_ID   = 84006
ELEMENT_SET_NO = 999
REV_AT_EPOCH   = 8345
BSTAR          = 0
MEAN_MOTION_DOT = -.4E-6
MEAN_MOTION_DDOT = 0

CCSDS_OMM_VERS = 2.0
CREATION_DATE  = 
ORIGINATOR     = 

OBJECT_NAME    = UNKNOWN
OBJECT_ID      = 
CENTER_NAME    = EARTH
REF_FRAME      = TEME
TIME_SYSTEM    = UTC
MEAN_ELEMENT_THEORY = SGP/SGP4

EPOCH          = 2025-11-08T02:11:53.322432
MEAN_MOTION    = 7.26645607
ECCENTRICITY   = .388023
INCLINATION    = 65.1176
RA_OF_ASC_NODE = 286.5641
ARG_OF_PERICENTER = 22.3858
MEAN_ANOMALY   = 350.8091

EPHEMERIS_TYPE = 0
CLASSIFICATION_TYPE = U
NORAD_CAT_ID   = 84188
ELEMENT_SET_NO = 999
REV_AT_EPOCH   = 3870
BSTAR          = .18168E+0
MEAN_MOTION_DOT = .173605E-2
MEAN_MOTION_DDOT = 0

CCSDS_OMM_VERS = 2.0
CREATION_DATE  = 
ORIGINATOR     = 

OBJECT_NAME    = UNKNOWN
OBJECT_ID      = 
CENTER_NAME    = EARTH
REF_FRAME      = TEME
TIME_SYSTEM    = UTC
MEAN_ELEMENT_THEORY = SGP/SGP4

EPOCH          = 2025-11-05T06:47:46.019328
MEAN_MOTION    = 3.16522021
ECCENTRICITY   = .6567557
INCLINATION    = 20.4043
RA_OF_ASC_NODE = 295.7175
ARG_OF_PERICENTER = 25.7019
MEAN_ANOMALY   = 355.9254

EPHEMERIS_TYPE = 0
CLASSIFICATION_TYPE = U
NORAD_CAT_ID   = 84232
ELEMENT_SET_NO = 999
REV_AT_EPOCH   = 10350
BSTAR          = .48957E-2
MEAN_MOTION_DOT = .6321E-4
MEAN_MOTION_DDOT = 0

CCSDS_OMM_VERS = 2.0
CREATION_DATE  = 
ORIGINATOR     = 

OBJECT_NAME    = UNKNOWN
OBJECT_ID      = 
CENTER_NAME    = EARTH
REF_FRAME      = TEME
TIME_SYSTEM    = UTC
MEAN_ELEMENT_THEORY = SGP/SGP4

EPOCH          = 2025-11-08T17:05:07.258848
MEAN_MOTION    = 2.62485704
ECCENTRICITY   = .6894804
INCLINATION    = 9.4478
RA_OF_ASC_NODE = 350.1824
ARG_OF_PERICENTER = 64.1895
MEAN_ANOMALY   = 349.7239

EPHEMERIS_TYPE = 0
CLASSIFICATION_TYPE = U
NORAD_CAT_ID   = 84236
ELEMENT_SET_NO = 999
REV_AT_EPOCH   = 11308
BSTAR          = .34603E-2
MEAN_MOTION_DOT = .472E-5
MEAN_MOTION_DDOT = 0

CCSDS_OMM_VERS = 2.0
CREATION_DATE  = 
ORIGINATOR     = 

OBJECT_NAME    = UNKNOWN
OBJECT_ID      = 
CENTER_NAME    = EARTH
REF_FRAME      = TEME
TIME_SYSTEM    = UTC
MEAN_ELEMENT_THEORY = SGP/SGP4

EPOCH          = 2025-11-07T00:41:05.474112
MEAN_MOTION    = 6.21186422
ECCENTRICITY   = .4566274
INCLINATION    = 23.8066
RA_OF_ASC_NODE = 209.7934
ARG_OF_PERICENTER = 153.9497
MEAN_ANOMALY   = 238.8792

EPHEMERIS_TYPE = 0
CLASSIFICATION_TYPE = U
NORAD_CAT_ID   = 84292
ELEMENT_SET_NO = 999
REV_AT_EPOCH   = 22584
BSTAR          = .24512E-2
MEAN_MOTION_DOT = .4402E-4
MEAN_MOTION_DDOT = 0

CCSDS_OMM_VERS = 2.0
CREATION_DATE  = 
ORIGINATOR     = 

OBJECT_NAME    = UNKNOWN
OBJECT_ID      = 
CENTER_NAME    = EARTH
REF_FRAME      = TEME
TIME_SYSTEM    = UTC
MEAN_ELEMENT_THEORY = SGP/SGP4

EPOCH          = 2025-11-08T04:44:38.630112
MEAN_MOTION    = 12.67264022
ECCENTRICITY   = .0043232
INCLINATION    = 101.7188
RA_OF_ASC_NODE = 95.8978
ARG_OF_PERICENTER = 111.7327
MEAN_ANOMALY   = 68.2160

EPHEMERIS_TYPE = 0
CLASSIFICATION_TYPE = U
NORAD_CAT_ID   = 84406
ELEMENT_SET_NO = 999
REV_AT_EPOCH   = 4491
BSTAR          = .39163E-2
MEAN_MOTION_DOT = .706E-5
MEAN_MOTION_DDOT = 0

CCSDS_OMM_VERS = 2.0
CREATION_DATE  = 
ORIGINATOR     = 

OBJECT_NAME    = UNKNOWN
OBJECT_ID      = 
CENTER_NAME    = EARTH
REF_FRAME      = TEME
TIME_SYSTEM    = UTC
MEAN_ELEMENT_THEORY = SGP/SGP4

EPOCH          = 2025-11-08T10:27:55.796544
MEAN_MOTION    = 2.05755232
ECCENTRICITY   = .7201147
INCLINATION    = 19.5236
RA_OF_ASC_NODE = 332.5748
ARG_OF_PERICENTER = 43.4604
MEAN_ANOMALY   = 354.8696

EPHEMERIS_TYPE = 0
CLASSIFICATION_TYPE = U
NORAD_CAT_ID   = 84407
ELEMENT_SET_NO = 999
REV_AT_EPOCH   = 7516
BSTAR          = .29365E-1
MEAN_MOTION_DOT = -.107E-5
MEAN_MOTION_DDOT = 0

CCSDS_OMM_VERS = 2.0
CREATION_DATE  = 
ORIGINATOR     = 

OBJECT_NAME    = UNKNOWN
OBJECT_ID      = 
CENTER_NAME    = EARTH
REF_FRAME      = TEME
TIME_SYSTEM    = UTC
MEAN_ELEMENT_THEORY = SGP/SGP4

EPOCH          = 2025-11-07T09:04:59.218752
MEAN_MOTION    = 2.19884698
ECCENTRICITY   = .7101648
INCLINATION    = 18.1416
RA_OF_ASC_NODE = 170.0215
ARG_OF_PERICENTER = 1.1757
MEAN_ANOMALY   = 0.0766

EPHEMERIS_TYPE = 0
CLASSIFICATION_TYPE = U
NORAD_CAT_ID   = 84575
ELEMENT_SET_NO = 999
REV_AT_EPOCH   = 6468
BSTAR          = .29608E-2
MEAN_MOTION_DOT = -.21E-6
MEAN_MOTION_DDOT = 0

