UNKNOWN                 
1 82965U          25301.65945996  .00001337  00000+0  18600-2 0  9994
2 82965 100.1169  19.7271 0002369 200.4397 159.6647 13.59868042518325
UNKNOWN                 
1 83903U          25312.57976047 -.00000003  00000+0  00000+0 0  9993
2 83903   6.2713 290.9208 0124909 250.3178 320.7047  0.99111911 43322
UNKNOWN                 
1 83934U          25308.90903197 -.00000304  00000+0  00000+0 0  9999
2 83934   5.8710 297.7524 0234954 271.1488 248.3162  1.02664883 44893
UNKNOWN                 
1 83970U          25307.00807631  .00002950  00000+0  31613-2 0  9990
2 83970  18.2728 264.4103 5073898  61.1942 340.3117  5.31464536194099
UNKNOWN                 
1 84006U          25311.04186501 -.00000040  00000+0  00000+0 0  9998
2 84006  22.5165 184.7700 6137799  48.2545 350.0846  2.16233097 83457
UNKNOWN                 
1 84188U          25312.09158938  .00173605  00000+0  18168+0 0  9999
2 84188  65.1176 286.5641 3880230  22.3858 350.8091  7.26645607 38708
UNKNOWN                 
1 84232U          25309.28317152  .00006321  00000+0  48957-2 0  9993
2 84232  20.4043 295.7175 6567557  25.7019 355.9254  3.16522021103509
UNKNOWN                 
1 84236U          25312.71188957  .00000472  00000+0  34603-2 0  9992
2 84236   9.4478 350.1824 6894804  64.1895 349.7239  2.62485704113080
UNKNOWN                 
1 84292U          25311.02853558  .00004402  00000+0  24512-2 0  9998
2 84292  23.8066 209.7934 4566274 153.9497 238.8792  6.21186422225840
UNKNOWN                 
1 84406U          25312.19766933  .00000706  00000+0  39163-2 0  9995
2 84406 101.7188  95.8978 0043232 111.7327  68.2160 12.67264022 44915
UNKNOWN                 
1 84407U          25312.43606246 -.00000107  00000+0  29365-1 0  9991
2 84407  19.5236 332.5748 7201147  43.4604 354.8696  2.05755232 75167
UNKNOWN                 
1 84575U          25311.37846318 -.00000021  00000+0  29608-2 0  9991
2 84575  18.1416 170.0215 7101648   1.1757   0.0766  2.19884698 64684
